CCSDS_OMM_VERS = 2.0
CREATION_DATE  = 
ORIGINATOR     = 

OBJECT_NAME    = CZ-2C R/B
OBJECT_ID      = 2022-058K
CENTER_NAME    = EARTH
REF_FRAME      = TEME
TIME_SYSTEM    = UTC
MEAN_ELEMENT_THEORY = SGP/SGP4

EPOCH          = 2025-11-22T23:41:55.330080
MEAN_MOTION    = 15.47118328
ECCENTRICITY   = .0047721
INCLINATION    = 50.1882
RA_OF_ASC_NODE = 144.1754
ARG_OF_PERICENTER = 116.8393
MEAN_ANOMALY   = 243.7465

EPHEMERIS_TYPE = 0
CLASSIFICATION_TYPE = U
NORAD_CAT_ID   = 52794
ELEMENT_SET_NO = 999
REV_AT_EPOCH   = 19357
BSTAR          = .55995E-3
MEAN_MOTION_DOT = .29888E-3
MEAN_MOTION_DDOT = 0

CCSDS_OMM_VERS = 2.0
CREATION_DATE  = 
ORIGINATOR     = 

OBJECT_NAME    = CZ-2C R/B
OBJECT_ID      = 2022-132E
CENTER_NAME    = EARTH
REF_FRAME      = TEME
TIME_SYSTEM    = UTC
MEAN_ELEMENT_THEORY = SGP/SGP4

EPOCH          = 2025-11-22T23:10:58.919808
MEAN_MOTION    = 15.53207130
ECCENTRICITY   = .0023734
INCLINATION    = 97.2945
RA_OF_ASC_NODE = 322.8123
ARG_OF_PERICENTER = 121.6643
MEAN_ANOMALY   = 238.6930

EPHEMERIS_TYPE = 0
CLASSIFICATION_TYPE = U
NORAD_CAT_ID   = 54039
ELEMENT_SET_NO = 999
REV_AT_EPOCH   = 17376
BSTAR          = .43762E-3
MEAN_MOTION_DOT = .27779E-3
MEAN_MOTION_DDOT = 0

CCSDS_OMM_VERS = 2.0
CREATION_DATE  = 
ORIGINATOR     = 

OBJECT_NAME    = GSLV R/B
OBJECT_ID      = 2022-138AN
CENTER_NAME    = EARTH
REF_FRAME      = TEME
TIME_SYSTEM    = UTC
MEAN_ELEMENT_THEORY = SGP/SGP4

EPOCH          = 2025-11-23T01:22:03.421920
MEAN_MOTION    = 14.95981983
ECCENTRICITY   = .0021702
INCLINATION    = 87.3845
RA_OF_ASC_NODE = 202.0628
ARG_OF_PERICENTER = 172.2411
MEAN_ANOMALY   = 187.9160

EPHEMERIS_TYPE = 0
CLASSIFICATION_TYPE = U
NORAD_CAT_ID   = 54149
ELEMENT_SET_NO = 999
REV_AT_EPOCH   = 16798
BSTAR          = .25691E-3
MEAN_MOTION_DOT = .292E-4
MEAN_MOTION_DDOT = 0

CCSDS_OMM_VERS = 2.0
CREATION_DATE  = 
ORIGINATOR     = 

OBJECT_NAME    = XRISM
OBJECT_ID      = 2023-137A
CENTER_NAME    = EARTH
REF_FRAME      = TEME
TIME_SYSTEM    = UTC
MEAN_ELEMENT_THEORY = SGP/SGP4

EPOCH          = 2025-11-23T01:43:54.495264
MEAN_MOTION    = 15.10074727
ECCENTRICITY   = .0007639
INCLINATION    = 31.0026
RA_OF_ASC_NODE = 252.5030
ARG_OF_PERICENTER = 44.9168
MEAN_ANOMALY   = 315.2088

EPHEMERIS_TYPE = 0
CLASSIFICATION_TYPE = U
NORAD_CAT_ID   = 57800
ELEMENT_SET_NO = 999
REV_AT_EPOCH   = 12165
BSTAR          = .36933E-3
MEAN_MOTION_DOT = .6261E-4
MEAN_MOTION_DDOT = 0

CCSDS_OMM_VERS = 2.0
CREATION_DATE  = 
ORIGINATOR     = 

OBJECT_NAME    = ACS3
OBJECT_ID      = 2024-077B
CENTER_NAME    = EARTH
REF_FRAME      = TEME
TIME_SYSTEM    = UTC
MEAN_ELEMENT_THEORY = SGP/SGP4

EPOCH          = 2025-11-22T21:13:05.611872
MEAN_MOTION    = 13.84196562
ECCENTRICITY   = .0069328
INCLINATION    = 97.2936
RA_OF_ASC_NODE = 286.9108
ARG_OF_PERICENTER = 14.3907
MEAN_ANOMALY   = 345.9207

EPHEMERIS_TYPE = 0
CLASSIFICATION_TYPE = U
NORAD_CAT_ID   = 59588
ELEMENT_SET_NO = 999
REV_AT_EPOCH   = 7939
BSTAR          = .18059E-2
MEAN_MOTION_DOT = .2023E-4
MEAN_MOTION_DDOT = 0

