CZ-2C R/B               
1 52794U 22058K   25326.98744595  .00029888  00000+0  55995-3 0  9993
2 52794  50.1882 144.1754 0047721 116.8393 243.7465 15.47118328193577
CZ-2C R/B               
1 54039U 22132E   25326.96595972  .00027779  00000+0  43762-3 0  9997
2 54039  97.2945 322.8123 0023734 121.6643 238.6930 15.53207130173764
GSLV R/B                
1 54149U 22138AN  25327.05698405  .00002920  00000+0  25691-3 0  9993
2 54149  87.3845 202.0628 0021702 172.2411 187.9160 14.95981983167980
XRISM                   
1 57800U 23137A   25327.07215851  .00006261  00000+0  36933-3 0  9995
2 57800  31.0026 252.5030 0007639  44.9168 315.2088 15.10074727121654
ACS3                    
1 59588U 24077B   25326.88409273  .00002023  00000+0  18059-2 0  9995
2 59588  97.2936 286.9108 0069328  14.3907 345.9207 13.84196562 79392
